COSMOS 2520             
1 42907U 17046A   26126.55644251  .00000145  00000+0  00000+0 0  9997
2 42907   0.0179 121.8246 0000343  16.4114 331.5115  1.00273009 31984
TDRS 13                 
1 42915U 17047A   26126.61650278 -.00000092  00000+0  00000+0 0  9992
2 42915   3.4424   1.6818 0013782  99.6591 333.6124  1.00272530 31932
QZS-3 (MICHIBIKI-3)     
1 42917U 17048A   26126.57264924 -.00000340  00000+0  00000+0 0  9995
2 42917   0.0596 149.1037 0002229 257.7962 150.6542  1.00277437 31843
AMAZONAS 5              
1 42934U 17053A   26126.39281425 -.00000275  00000+0  00000+0 0  9992
2 42934   0.0341 314.2915 0004029  57.7907 292.5974  1.00274753 31626
ASIASAT 9               
1 42942U 17057A   26126.64297895 -.00000352  00000+0  00000+0 0  9997
2 42942   0.0123 301.5296 0002314 101.5381 175.0224  1.00270771 31442
INTELSAT 37E (IS-37E)   
1 42950U 17059A   26126.61520277 -.00000133  00000+0  00000+0 0  9995
2 42950   0.0094 279.1218 0002746 134.8602  13.9536  1.00270509 31643
BSAT-4A                 
1 42951U 17059B   26126.61610012 -.00000343  00000+0  00000+0 0  9996
2 42951   0.0673  55.5618 0004695 357.0637 143.4932  1.00272542 31388
QZS-4 (MICHIBIKI-4)     
1 42965U 17062A   26125.93492591 -.00000319  00000+0  00000+0 0  9992
2 42965  40.1331 344.0222 0745653 271.0371  85.0238  1.00264121 31386
SES-11 (ECHOSTAR 105)   
1 42967U 17063A   26126.45538562 -.00000081  00000+0  00000+0 0  9998
2 42967   0.0261  17.2527 0002842  44.2128 221.8371  1.00270156 31303
KOREASAT 5A             
1 42984U 17067A   26126.56996256 -.00000350  00000+0  00000+0 0  9990
2 42984   0.0218 284.4697 0001254 130.7852 127.5221  1.00271656 31112
ALCOMSAT 1              
1 43039U 17078A   26126.40000762 -.00000178  00000+0  00000+0 0  9993
2 43039   0.0456 109.6858 0002516 283.2765 310.5051  1.00271327 30876
SBIRS GEO-3 (USA 282)   
1 43162U 18009A   26126.58720931  .00000136  00000+0  00000+0 0  9994
2 43162   2.1571  10.0920 0002394  34.8457 231.5107  1.00272764 30422
AL YAH 3                
1 43174U 18012A   26126.61485610 -.00000147  00000+0  00000+0 0  9990
2 43174   1.4445  83.5745 0004565 327.6988  14.4633  1.00271597 30426
SES-14                  
1 43175U 18012B   26126.46682567 -.00000271  00000+0  00000+0 0  9992
2 43175   0.0321  44.8706 0001060   3.7746 296.2477  1.00268663  6602
GOES 17                 
1 43226U 18022A   26126.60107604 -.00000175  00000+0  00000+0 0  9993
2 43226   0.8314  86.2841 0000766 317.4391 307.6380  1.00271907 30008
HISPASAT 30W-6          
1 43228U 18023A   26126.32762089 -.00000208  00000+0  00000+0 0  9996
2 43228   0.0499  49.9086 0006518 357.8497 264.3793  1.00270986 29987
SUPERBIRD-B3            
1 43271U 18033A   26126.56343183 -.00000084  00000+0  00000+0 0  9993
2 43271   0.0080 311.0345 0001409 101.6670 176.5711  1.00272166 29643
HYLAS 4                 
1 43272U 18033B   26126.46959902 -.00000226  00000+0  00000+0 0  9993
2 43272   0.0465  92.4487 0002167 332.4597 294.9929  1.00271416 29645
IRNSS-1I                
1 43286U 18035A   26125.91689917  .00000090  00000+0  00000+0 0  9993
2 43286  29.0788  74.8480 0017662 186.9011 347.2974  1.00278576 29652
USA 283                 
1 43339U 18036A   26125.50459338  .00000000  00000+0  00000+0 0  9991
2 43339   0.0149 279.0663 0000497 164.0381  96.0243  1.00269680 24860
COSMOS 2526             
1 43432U 18037A   26126.35899434 -.00000336  00000+0  00000+0 0  9998
2 43432   0.0029 189.3214 0000714  42.2650 249.9396  1.00273535 29546
APSTAR-6C               
1 43450U 18041A   26126.78789163 -.00000310  00000+0  00000+0 0  9999
2 43450   0.0527  43.8771 0002196 314.5919 283.8215  1.00270101 29396
BANGABANDHUSAT-1        
1 43463U 18044A   26126.62029675 -.00000355  00000+0  00000+0 0  9993
2 43463   0.0031 303.4425 0002310 108.6537 154.7919  1.00270545 29295
SES-12                  
1 43488U 18049A   26126.54990453 -.00000262  00000+0  00000+0 0  9994
2 43488   0.0442  70.5396 0001145 253.5391 193.3099  1.00271973 29003
FENGYUN 2H              
1 43491U 18050A   26126.63452951 -.00000122  00000+0  00000+0 0  9991
2 43491   2.9251  79.5420 0001262 142.5241 310.2208  1.00274546 29027
BEIDOU-2 IGSO-7         
1 43539U 18057A   26123.67860174 -.00000046  00000+0  00000+0 0  9997
2 43539  55.2660 163.5842 0103557 236.0074 178.8558  1.00264653 28685
TELSTAR 19V             
1 43562U 18059A   26126.53503575 -.00000272  00000+0  00000+0 0  9993
2 43562   0.0216 191.5415 0002213 261.3924 261.0794  1.00270582 28725
TELKOM 4 (MERAH PUTIH)  
1 43587U 18064A   26126.61507062 -.00000336  00000+0  00000+0 0  9991
2 43587   0.0137 255.7161 0002530 185.7052 112.4779  1.00271666 28465
TELSTAR 18V             
1 43611U 18069A   26126.57481591 -.00000285  00000+0  00000+0 0  9990
2 43611   0.0160 274.9817 0002110 126.2681 168.1332  1.00273776 28223
AZERSPACE 2 (IS-38)     
1 43632U 18074A   26126.55644251  .00000144  00000+0  00000+0 0  9994
2 43632   0.0187 276.5325 0001590 133.8252  59.5032  1.00272699 28038
HORIZONS-3E             
1 43633U 18074B   26126.56065576 -.00000023  00000+0  00000+0 0  9990
2 43633   0.0216 130.1886 0000697 205.7722 259.2874  1.00271925 27928
AEHF-4 (USA 288)        
1 43651U 18079A   26126.53399575 -.00000267  00000+0  00000+0 0  9991
2 43651   1.4252   0.3290 0062552 358.5183 350.2177  1.00276027 27876
BEIDOU-3 G1             
1 43683U 18085A   26126.57923594 -.00000100  00000+0  00000+0 0  9997
2 43683   2.9695  98.4753 0007594 336.8437 157.6007  1.00273456 27645
GSAT-29                 
1 43698U 18089A   26126.55843586  .00000093  00000+0  00000+0 0  9997
2 43698   0.0495 256.8714 0003600 143.5434  80.1509  1.00269040 27370
ES'HAIL 2               
1 43700U 18090A   26126.55262917  .00000152  00000+0  00000+0 0  9992
2 43700   0.0114 271.6872 0001645 162.5120  14.9707  1.00271993 27254
GEO-KOMPSAT-2A          
1 43823U 18100A   26126.57290924 -.00000336  00000+0  00000+0 0  9996
2 43823   0.0438  96.6790 0002307 337.4657 124.8088  1.00271269 27212
GSAT-11                 
1 43824U 18100B   26126.56216253 -.00000069  00000+0  00000+0 0  9992
2 43824   0.0593 263.2578 0007574 171.8559  65.6962  1.00271982 27061
GSAT-7A                 
1 43864U 18105A   26126.55195252  .00000033  00000+0  00000+0 0  9995
2 43864   0.0708  77.0309 0002479 333.6654  75.2408  1.00275159 27038
COSMOS 2533             
1 43867U 18107A   26126.63270950 -.00000031  00000+0  00000+0 0  9997
2 43867   0.0067  67.4893 0000597   1.9055  92.8792  1.00270383 27034
TJS-3                   
1 43874U 18110A   26126.70892090 -.00000207  00000+0  00000+0 0  9997
2 43874   2.4381  80.9691 0000945  27.8999 159.1353  1.00273583 27006
ZHONGXING-2D            
1 43920U 19001A   26126.64453896 -.00000329  00000+0  00000+0 0  9994
2 43920   0.0402  30.6243 0000805 347.7527 208.1803  1.00270902 53665
HELLAS-SAT 4 & SGS-1    
1 44034U 19007A   26126.55522918  .00000160  00000+0  00000+0 0  9991
2 44034   0.0671 122.3277 0004371  12.1581 328.8233  1.00273507 26954
GSAT-31                 
1 44035U 19007B   26126.55696251  .00000133  00000+0  00000+0 0  9994
2 44035   0.0149 256.1060 0002518  99.2369 117.4838  1.00273401 26554
NUSANTARA SATU          
1 44048U 19009A   26126.33308736 -.00000227  00000+0  00000+0 0  9999
2 44048   0.0406 120.1272 0003707 339.5933  30.4113  1.00270718 26353
ZHONGXING-6C            
1 44067U 19012A   26126.64462562 -.00000328  00000+0  00000+0 0  9998
2 44067   0.0607  75.0228 0012188 329.1986 182.7455  1.00267997 26324
WGS 10 (USA 291)        
1 44071U 19014A   26126.55947586  .00000055  00000+0  00000+0 0  9995
2 44071   0.0176 305.1393 0000529  79.5234 101.4588  1.00271657 26208
TIANLIAN 2-01           
1 44076U 19017A   26126.57018527 -.00000099  00000+0  00000+0 0  9998
2 44076   0.4321  82.8813 0001286 296.4590 127.3855  1.00272498 26232
ARABSAT-6A              
1 44186U 19021A   26126.55349583  .00000161  00000+0  00000+0 0  9991
2 44186   0.0559  10.5506 0002818  63.0384  20.5226  1.00271859 25742
BEIDOU-3 IGSO-1         
1 44204U 19023A   26120.68081943 -.00000239  00000+0  00000+0 0  9992
2 44204  58.6323  38.1392 0024402 235.3065 306.5734  1.00254513  6730
BEIDOU-2 G8             
1 44231U 19027A   26126.64739897 -.00000239  00000+0  00000+0 0  9996
2 44231   1.5534  74.4091 0011197 281.5650 246.0604  1.00275816 25666
YAMAL 601               
1 44307U 19031A   26126.55722251  .00000128  00000+0  00000+0 0  9997
2 44307   0.0102 337.5662 0002822  71.0635  65.3926  1.00272555 25501
AT&T T-16               
1 44333U 19034A   26126.52749572 -.00000107  00000+0  00000+0 0  9999
2 44333   0.0328  90.3790 0000624  95.6505 127.3986  1.00270830 25219
EUTELSAT 7C             
1 44334U 19034B   26126.54881581  .00000056  00000+0  00000+0 0  9991
2 44334   0.0752 181.0679 0003367 213.0090  34.9048  1.00271326  6411
BEIDOU-3 IGSO-2         
1 44337U 19035A   26125.00223196 -.00000073  00000+0  00000+0 0  9997
2 44337  55.2377 159.2418 0039428 215.2872 328.9066  1.00280508 25235
COSMOS 2539             
1 44457U 19048A   26126.62118279  .00000089  00000+0  00000+0 0  9994
2 44457   0.0069  53.0908 0000823 146.2071 260.8185  1.00271880 24812
EDRS-C                  
1 44475U 19049A   26126.57576925 -.00000254  00000+0  00000+0 0  9990
2 44475   0.0127 235.1247 0001221 186.1234 152.9656  1.00270669 24798
INTELSAT 39 (IS-39)     
1 44476U 19049B   26126.55195233  .00000041  00000+0  00000+0 0  9991
2 44476   0.0154 275.5989 0000400 326.8457 242.6197  1.00271122 24712
AMOS-17                 
1 44479U 19050A   26126.35322684  .00000117  00000+0  00000+0 0  9990
2 44479   0.0195 298.5871 0001603 135.7929 293.9985  1.00273576 24766
AEHF-5 (USA 292)        
1 44481U 19051A   26126.60611017 -.00000251  00000+0  00000+0 0  9993
2 44481   1.4940 333.0675 0068866   2.6737 200.0012  1.00270028 24840
